{"type": "FeatureCollection", "features": [ {"type": "Feature", "properties": {"norad_id": 34529, "name": "IRIDIUM 33 DEB", "group": "iridium-33-debris", "lat": 54.785502073652054, "lon": -145.33747076352623, "alt_km": 751.4351756122887, "timestamp": "2025-12-02T08:59:33.099441+00:00", "meta": {"OBJECT_NAME": "IRIDIUM 33 DEB", "OBJECT_ID": "1997-051HW", "EPOCH": "2025-12-01T14:04:36.035616", "MEAN_MOTION": 14.40601012, "ECCENTRICITY": 0.00035034, "INCLINATION": 86.3651, "RA_OF_ASC_NODE": 40.1656, "ARG_OF_PERICENTER": 218.3703, "MEAN_ANOMALY": 141.7248, "EPHEMERIS_TYPE": 0, "CLASSIFICATION_TYPE": "U", "NORAD_CAT_ID": 34529, "ELEMENT_SET_NO": 999, "REV_AT_EPOCH": 87981, "BSTAR": 0.00013685472, "MEAN_MOTION_DOT": 4.56e-06, "MEAN_MOTION_DDOT": 0}, "tle": {"line1": "1 34529U 97051HW  25335.58652819  .00000456  00000+0  13685-3 0  9997", "line2": "2 34529  86.3651  40.1656 0003503 218.3703 141.7248 14.40601012879810"}}, "geometry": {"type": "Point", "coordinates": [-145.33747076352623, 54.785502073652054]}}, {"type": "Feature", "properties": {"norad_id": 34538, "name": "IRIDIUM 33 DEB", "group": "iridium-33-debris", "lat": -67.32004647875873, "lon": -160.94423642110135, "alt_km": 767.7307012434185, "timestamp": "2025-12-02T08:59:33.099451+00:00", "meta": {"OBJECT_NAME": "IRIDIUM 33 DEB", "OBJECT_ID": "1997-051JF", "EPOCH": "2025-12-02T03:08:34.535328", "MEAN_MOTION": 14.42546376, "ECCENTRICITY": 0.0034146, "INCLINATION": 86.2785, "RA_OF_ASC_NODE": 10.2023, "ARG_OF_PERICENTER": 3.5659, "MEAN_ANOMALY": 59.4066, "EPHEMERIS_TYPE": 0, "CLASSIFICATION_TYPE": "U", "NORAD_CAT_ID": 34538, "ELEMENT_SET_NO": 999, "REV_AT_EPOCH": 87603, "BSTAR": 0.0010217, "MEAN_MOTION_DOT": 3.431e-05, "MEAN_MOTION_DDOT": 0}, "tle": {"line1": "1 34538U 97051JF  25336.13095527  .00003431  00000+0  10217-2 0  9999", "line2": "2 34538  86.2785  10.2023 0034146   3.5659  59.4066 14.42546376876031"}}, "geometry": {"type": "Point", "coordinates": [-160.94423642110135, -67.32004647875873]}}, {"type": "Feature", "properties": {"norad_id": 34540, "name": "IRIDIUM 33 DEB", "group": "iridium-33-debris", "lat": 6.441049636609802, "lon": 131.92766971815593, "alt_km": 638.1489648006473, "timestamp": "2025-12-02T08:59:33.099461+00:00", "meta": {"OBJECT_NAME": "IRIDIUM 33 DEB", "OBJECT_ID": "1997-051JH", "EPOCH": "2025-12-01T22:40:55.821792", "MEAN_MOTION": 14.74944145, "ECCENTRICITY": 0.001463, "INCLINATION": 86.3093, "RA_OF_ASC_NODE": 312.5415, "ARG_OF_PERICENTER": 199.1417, "MEAN_ANOMALY": 214.7599, "EPHEMERIS_TYPE": 0, "CLASSIFICATION_TYPE": "U", "NORAD_CAT_ID": 34540, "ELEMENT_SET_NO": 999, "REV_AT_EPOCH": 88862, "BSTAR": 0.0018615, "MEAN_MOTION_DOT": 0.00012557, "MEAN_MOTION_DDOT": 0}, "tle": {"line1": "1 34540U 97051JH  25335.94509053  .00012557  00000+0  18615-2 0  9993", "line2": "2 34540  86.3093 312.5415 0014630 199.1417 214.7599 14.74944145888626"}}, "geometry": {"type": "Point", "coordinates": [131.92766971815593, 6.441049636609802]}}, {"type": "Feature", "properties": {"norad_id": 34648, "name": "IRIDIUM 33 DEB", "group": "iridium-33-debris", "lat": -0.7538859548618604, "lon": 106.17636429870511, "alt_km": 975.8850401013879, "timestamp": "2025-12-02T08:59:33.099474+00:00", "meta": {"OBJECT_NAME": "IRIDIUM 33 DEB", "OBJECT_ID": "1997-051JZ", "EPOCH": "2025-12-01T03:11:38.418720", "MEAN_MOTION": 14.1087899, "ECCENTRICITY": 0.01868529, "INCLINATION": 86.3903, "RA_OF_ASC_NODE": 286.6295, "ARG_OF_PERICENTER": 334.6513, "MEAN_ANOMALY": 24.5588, "EPHEMERIS_TYPE": 0, "CLASSIFICATION_TYPE": "U", "NORAD_CAT_ID": 34648, "ELEMENT_SET_NO": 999, "REV_AT_EPOCH": 84797, "BSTAR": 0.0079356223, "MEAN_MOTION_DOT": 0.00016788, "MEAN_MOTION_DDOT": 0}, "tle": {"line1": "1 34648U 97051JZ  25335.13308355  .00016788  00000+0  79356-2 0  9994", "line2": "2 34648  86.3903 286.6295 0186852 334.6513  24.5588 14.10878990847973"}}, "geometry": {"type": "Point", "coordinates": [106.17636429870511, -0.7538859548618604]}}, {"type": "Feature", "properties": {"norad_id": 34651, "name": "IRIDIUM 33 DEB", "group": "iridium-33-debris", "lat": 60.6572577521151, "lon": 151.6248806678485, "alt_km": 902.5871090755109, "timestamp": "2025-12-02T08:59:33.099502+00:00", "meta": {"OBJECT_NAME": "IRIDIUM 33 DEB", "OBJECT_ID": "1997-051KC", "EPOCH": "2025-12-01T22:35:35.153376", "MEAN_MOTION": 14.25524866, "ECCENTRICITY": 0.0141864, "INCLINATION": 86.2826, "RA_OF_ASC_NODE": 145.168, "ARG_OF_PERICENTER": 238.3822, "MEAN_ANOMALY": 120.3461, "EPHEMERIS_TYPE": 0, "CLASSIFICATION_TYPE": "U", "NORAD_CAT_ID": 34651, "ELEMENT_SET_NO": 999, "REV_AT_EPOCH": 85742, "BSTAR": 0.0033875, "MEAN_MOTION_DOT": 8.919e-05, "MEAN_MOTION_DDOT": 0}, "tle": {"line1": "1 34651U 97051KC  25335.94137909  .00008919  00000+0  33875-2 0  9995", "line2": "2 34651  86.2826 145.1680 0141864 238.3822 120.3461 14.25524866857426"}}, "geometry": {"type": "Point", "coordinates": [151.6248806678485, 60.6572577521151]}}, {"type": "Feature", "properties": {"norad_id": 34652, "name": "IRIDIUM 33 DEB", "group": "iridium-33-debris", "lat": -19.4468720312948, "lon": 165.91513983047602, "alt_km": 706.054444919735, "timestamp": "2025-12-02T08:59:33.099514+00:00", "meta": {"OBJECT_NAME": "IRIDIUM 33 DEB", "OBJECT_ID": "1997-051KD", "EPOCH": "2025-12-02T00:00:47.418048", "MEAN_MOTION": 14.61892089, "ECCENTRICITY": 0.0027108, "INCLINATION": 86.3315, "RA_OF_ASC_NODE": 344.7836, "ARG_OF_PERICENTER": 336.6738, "MEAN_ANOMALY": 55.158, "EPHEMERIS_TYPE": 0, "CLASSIFICATION_TYPE": "U", "NORAD_CAT_ID": 34652, "ELEMENT_SET_NO": 999, "REV_AT_EPOCH": 88327, "BSTAR": 0.0011175, "MEAN_MOTION_DOT": 5.639e-05, "MEAN_MOTION_DDOT": 0}, "tle": {"line1": "1 34652U 97051KD  25336.00054882  .00005639  00000+0  11175-2 0  9997", "line2": "2 34652  86.3315 344.7836 0027108 336.6738  55.1580 14.61892089883277"}}, "geometry": {"type": "Point", "coordinates": [165.91513983047602, -19.4468720312948]}}, {"type": "Feature", "properties": {"norad_id": 34690, "name": "IRIDIUM 33 DEB", "group": "iridium-33-debris", "lat": -40.04109620017986, "lon": 38.44573933159762, "alt_km": 717.2138484329716, "timestamp": "2025-12-02T08:59:33.099525+00:00", "meta": {"OBJECT_NAME": "IRIDIUM 33 DEB", "OBJECT_ID": "1997-051KM", "EPOCH": "2025-11-30T04:29:28.709376", "MEAN_MOTION": 14.55018885, "ECCENTRICITY": 0.00120076, "INCLINATION": 86.3793, "RA_OF_ASC_NODE": 42.4459, "ARG_OF_PERICENTER": 66.3956, "MEAN_ANOMALY": 322.5053, "EPHEMERIS_TYPE": 0, "CLASSIFICATION_TYPE": "U", "NORAD_CAT_ID": 34690, "ELEMENT_SET_NO": 999, "REV_AT_EPOCH": 87912, "BSTAR": 0.00049664139, "MEAN_MOTION_DOT": 2.161e-05, "MEAN_MOTION_DDOT": 0}, "tle": {"line1": "1 34690U 97051KM  25334.18713784  .00002161  00000+0  49664-3 0  9991", "line2": "2 34690  86.3793  42.4459 0012007  66.3956 322.5053 14.55018885879125"}}, "geometry": {"type": "Point", "coordinates": [38.44573933159762, -40.04109620017986]}}, {"type": "Feature", "properties": {"norad_id": 34693, "name": "IRIDIUM 33 DEB", "group": "iridium-33-debris", "lat": -61.08058191539343, "lon": 135.6762673557063, "alt_km": 511.2579260203047, "timestamp": "2025-12-02T08:59:33.099538+00:00", "meta": {"OBJECT_NAME": "IRIDIUM 33 DEB", "OBJECT_ID": "1997-051KQ", "EPOCH": "2025-11-30T23:07:01.388928", "MEAN_MOTION": 15.23975533, "ECCENTRICITY": 0.00160601, "INCLINATION": 86.3054, "RA_OF_ASC_NODE": 309.6565, "ARG_OF_PERICENTER": 71.8143, "MEAN_ANOMALY": 350.1616, "EPHEMERIS_TYPE": 0, "CLASSIFICATION_TYPE": "U", "NORAD_CAT_ID": 34693, "ELEMENT_SET_NO": 999, "REV_AT_EPOCH": 88735, "BSTAR": 0.0041949238, "MEAN_MOTION_DOT": 0.0010311, "MEAN_MOTION_DDOT": 0}, "tle": {"line1": "1 34693U 97051KQ  25334.96321052  .00103110  00000+0  41949-2 0  9996", "line2": "2 34693  86.3054 309.6565 0016060  71.8143 350.1616 15.23975533887350"}}, "geometry": {"type": "Point", "coordinates": [135.6762673557063, -61.08058191539343]}}, {"type": "Feature", "properties": {"norad_id": 34696, "name": "IRIDIUM 33 DEB", "group": "iridium-33-debris", "lat": 78.77269864548704, "lon": -167.2973517393302, "alt_km": 683.2332531634293, "timestamp": "2025-12-02T08:59:33.099549+00:00", "meta": {"OBJECT_NAME": "IRIDIUM 33 DEB", "OBJECT_ID": "1997-051KT", "EPOCH": "2025-12-01T15:05:30.511104", "MEAN_MOTION": 14.64076144, "ECCENTRICITY": 0.0075021, "INCLINATION": 86.1859, "RA_OF_ASC_NODE": 32.6869, "ARG_OF_PERICENTER": 205.0419, "MEAN_ANOMALY": 287.6306, "EPHEMERIS_TYPE": 0, "CLASSIFICATION_TYPE": "U", "NORAD_CAT_ID": 34696, "ELEMENT_SET_NO": 999, "REV_AT_EPOCH": 86510, "BSTAR": 0.0055989172, "MEAN_MOTION_DOT": 0.00030736, "MEAN_MOTION_DDOT": 0}, "tle": {"line1": "1 34696U 97051KT  25335.62882536  .00030736  00000+0  55989-2 0  9994", "line2": "2 34696  86.1859  32.6869 0075021 205.0419 287.6306 14.64076144865106"}}, "geometry": {"type": "Point", "coordinates": [-167.2973517393302, 78.77269864548704]}}, {"type": "Feature", "properties": {"norad_id": 34765, "name": "IRIDIUM 33 DEB", "group": "iridium-33-debris", "lat": 6.476139614325369, "lon": -143.20773777929136, "alt_km": 756.6637389012467, "timestamp": "2025-12-02T08:59:33.099559+00:00", "meta": {"OBJECT_NAME": "IRIDIUM 33 DEB", "OBJECT_ID": "1997-051LJ", "EPOCH": "2025-12-02T05:08:41.186112", "MEAN_MOTION": 14.40418763, "ECCENTRICITY": 0.0014551, "INCLINATION": 86.3401, "RA_OF_ASC_NODE": 37.2773, "ARG_OF_PERICENTER": 249.3549, "MEAN_ANOMALY": 173.3707, "EPHEMERIS_TYPE": 0, "CLASSIFICATION_TYPE": "U", "NORAD_CAT_ID": 34765, "ELEMENT_SET_NO": 999, "REV_AT_EPOCH": 87462, "BSTAR": 0.00049788, "MEAN_MOTION_DOT": 1.602e-05, "MEAN_MOTION_DDOT": 0}, "tle": {"line1": "1 34765U 97051LJ  25336.21436558  .00001602  00000+0  49788-3 0  9997", "line2": "2 34765  86.3401  37.2773 0014551 249.3549 173.3707 14.40418763874623"}}, "geometry": {"type": "Point", "coordinates": [-143.20773777929136, 6.476139614325369]}}]}